NORAD_CAT_ID,OBJECT_NAME,OBJECT_TYPE,EPOCH,MEAN_MOTION,ECCENTRICITY,INCLINATION,RA_OF_ASC_NODE,ARG_OF_PERICENTER,MEAN_ANOMALY,BSTAR,MEAN_MOTION_DOT,MEAN_MOTION_DDOT,TLE_LINE0,TLE_LINE1,TLE_LINE2,SEMIMAJOR_AXIS,PERIOD,APOGEE,PERIGEE,DECAYED
54770.0,STARLINK-5448,PAYLOAD,2024-03-21 02:17:30,15.08838876,0.0001653,53.2201,15.1884,127.2105,232.9038,2.0289e-05,3.5e-07,0.0,0 STARLINK-5448,1 54770U 22175N   24081.09549074  .00000035  00000-0  20289-4 0  9996,2 54770  53.2201  15.1884 0001653 127.2105 232.9038 15.08838876 69486,6917.884,95.438,540.892,538.605,0.0
54770.0,STARLINK-5448,PAYLOAD,2024-03-21 22:57:30,15.08844506,0.0001251,53.2198,11.3286,109.5056,250.6071,2.8904e-05,1.72e-06,0.0,0 STARLINK-5448,1 54770U 22175N   24081.95660781  .00000172  00000-0  28904-4 0  9994,2 54770  53.2198  11.3286 0001251 109.5056 250.6071 15.08844506 71773,6917.867,95.437,540.597,538.866,0.0
54770.0,STARLINK-5448,PAYLOAD,2024-03-22 05:19:03,15.08849706,0.0001381,53.2188,10.137,112.0639,248.05,0.00018286,2.624e-05,0.0,0 STARLINK-5448,1 54770U 22175N   24082.22156381  .00002624  00000-0  18286-3 0  9996,2 54770  53.2188  10.1370 0001381 112.0639 248.0500 15.08849706 69652,6917.851,95.437,540.671,538.76,0.0
54770.0,STARLINK-5448,PAYLOAD,2024-03-22 19:37:32,15.08835516,0.0001336,53.2192,7.4555,109.7149,250.3987,0.00010574,1.395e-05,0.0,0 STARLINK-5448,1 54770U 22175N   24082.81773228  .00001395  00000-0  10574-3 0  9992,2 54770  53.2192   7.4555 0001336 109.7149 250.3987 15.08835516 69749,6917.894,95.438,540.683,538.835,0.0
54770.0,STARLINK-5448,PAYLOAD,2024-03-22 22:48:19,15.08817471,0.0001168,53.2185,6.8736,87.8249,272.2877,-0.00014521,-2.597e-05,0.0,0 STARLINK-5448,1 54770U 22175N   24082.95022319 -.00002597  00000-0 -14521-3 0  9998,2 54770  53.2185   6.8736 0001168  87.8249 272.2877 15.08817471 71929,6917.949,95.439,540.622,539.006,0.0
54770.0,STARLINK-5448,PAYLOAD,2024-03-23 05:09:51,15.0882109,0.0001398,53.219,5.6765,101.7192,258.3957,-5.3947e-05,-1.146e-05,0.0,0 STARLINK-5448,1 54770U 22175N   24083.21518474 -.00001146  00000-0 -53947-4 0  9995,2 54770  53.2190   5.6765 0001398 101.7192 258.3957 15.08821090 69802,6917.938,95.439,540.77,538.836,0.0
54770.0,STARLINK-5448,PAYLOAD,2024-03-23 22:39:05,15.08841847,0.0001129,53.2192,2.4126,82.5138,277.5983,0.00018749,2.697e-05,0.0,0 STARLINK-5448,1 54770U 22175N   24083.94381848  .00002697  00000-0  18749-3 0  9998,2 54770  53.2192   2.4126 0001129  82.5138 277.5983 15.08841847 72075,6917.875,95.437,540.521,538.959,0.0
54770.0,STARLINK-5448,PAYLOAD,2024-03-24 03:25:14,15.08865427,0.0001323,53.2186,1.5135,101.1312,258.9829,0.00082492,0.00012874,0.0,0 STARLINK-5448,1 54770U 22175N   24084.14252938  .00012874  00000-0  82492-3 0  9992,2 54770  53.2186   1.5135 0001323 101.1312 258.9829 15.08865427 69940,6917.803,95.436,540.583,538.752,0.0
54770.0,STARLINK-5448,PAYLOAD,2024-03-24 11:22:08,15.08894706,0.0001078,53.2188,0.0276,78.0926,282.0187,0.0013074,0.00020612,0.0,0 STARLINK-5448,1 54770U 22175N   24084.47371231  .00020612  00000-0  13074-2 0  9994,2 54770  53.2188   0.0276 0001078  78.0926 282.0187 15.08894706 69994,6917.713,95.434,540.324,538.832,0.0
54770.0,STARLINK-5448,PAYLOAD,2024-03-24 17:43:43,15.08797515,0.0001043,53.2182,358.8408,105.1611,254.9497,-0.0010341,-0.00016688,0.0,0 STARLINK-5448,1 54770U 22175N   24084.73870269 -.00016688  00000-0 -10341-2 0  9992,2 54770  53.2182 358.8408 0001043 105.1611 254.9497 15.08797515 70033,6918.01,95.44,540.597,539.154,0.0
54770.0,STARLINK-5448,PAYLOAD,2024-03-24 22:29:52,15.08834222,0.0002026,53.2181,357.9565,90.2618,269.8606,-9.0543e-05,-1.729e-05,0.0,0 STARLINK-5448,1 54770U 22175N   24084.93741888 -.00001729  00000-0 -90543-4 0  9992,2 54770  53.2181 357.9565 0002026  90.2618 269.8606 15.08834222 72226,6917.898,95.438,541.165,538.361,0.0
54770.0,STARLINK-5448,PAYLOAD,2024-03-25 01:40:38,15.08855063,0.0001501,53.2174,357.3536,122.2844,237.8294,-3.8316e-05,-8.98e-06,0.0,0 STARLINK-5448,1 54770U 22175N   24085.06988814 -.00000898  00000-0 -38316-4 0  9995,2 54770  53.2174 357.3536 0001501 122.2844 237.8294 15.08855063 70080,6917.834,95.437,540.738,538.661,0.0
54770.0,STARLINK-5448,PAYLOAD,2024-03-25 17:34:31,15.0879952,0.0001708,53.2174,354.3809,94.844,265.2747,-0.00097162,-0.00015701,0.0,0 STARLINK-5448,1 54770U 22175N   24085.73230396 -.00015701  00000-0 -97162-3 0  9996,2 54770  53.2174 354.3809 0001708  94.8440 265.2747 15.08799520 70189,6918.004,95.44,541.051,538.688,0.0
54770.0,STARLINK-5448,PAYLOAD,2024-03-25 22:20:41,15.08794661,0.0001641,53.2174,353.4914,84.4216,275.6963,-0.00071677,-0.00011663,0.0,0 STARLINK-5448,1 54770U 22175N   24085.93103207 -.00011663  00000-0 -71677-3 0  9994,2 54770  53.2174 353.4914 0001641  84.4216 275.6963 15.08794661 72377,6918.019,95.44,541.019,538.749,0.0
54770.0,STARLINK-5448,PAYLOAD,2024-03-26 11:03:47,15.08811734,0.0001904,53.2202,351.1128,85.3091,274.8118,0.00053113,8.169e-05,0.0,0 STARLINK-5448,1 54770U 22175N   24086.46096480  .00008169  00000-0  53113-3 0  9997,2 54770  53.2202 351.1128 0001904  85.3091 274.8118 15.08811734 70297,6917.967,95.439,541.149,538.515,0.0
54770.0,STARLINK-5448,PAYLOAD,2024-03-26 22:11:29,15.0885193,0.0002224,53.2171,349.0303,85.8963,274.2283,0.0018988,0.00030071,0.0,0 STARLINK-5448,1 54770U 22175N   24086.92464556  .00030071  00000-0  18988-2 0  9998,2 54770  53.2171 349.0303 0002224  85.8963 274.2283 15.08851930 72529,6917.844,95.437,541.247,538.17,0.0
54770.0,STARLINK-5448,PAYLOAD,2024-03-26 23:46:52,15.08857587,0.0001834,53.216,348.7324,91.0883,269.032,0.0019108,0.00030268,0.0,0 STARLINK-5448,1 54770U 22175N   24086.99088316  .00030268  00000-0  19108-2 0  9994,2 54770  53.2160 348.7324 0001834  91.0883 269.0320 15.08857587 70371,6917.827,95.436,540.96,538.423,0.0
54770.0,STARLINK-5448,PAYLOAD,2024-03-27 10:54:33,15.08877356,0.0001508,53.2174,346.6504,89.2197,270.8968,0.0011966,0.00018827,0.0,0 STARLINK-5448,1 54770U 22175N   24087.45454989  .00018827  00000-0  11966-2 0  9990,2 54770  53.2174 346.6504 0001508  89.2197 270.8968 15.08877356 72600,6917.766,95.435,540.674,538.588,0.0
54770.0,STARLINK-5448,PAYLOAD,2024-03-27 20:26:51,15.08855909,0.0001244,53.2183,344.8677,83.508,276.6054,-9.2306e-05,-1.757e-05,0.0,0 STARLINK-5448,1 54770U 22175N   24087.85198699 -.00001757  00000-0 -92306-4 0  9992,2 54770  53.2183 344.8677 0001244  83.5080 276.6054 15.08855909 70503,6917.832,95.437,540.557,538.836,0.0
54770.0,STARLINK-5448,PAYLOAD,2024-03-27 22:02:14,15.08853601,0.0001116,53.2176,344.5696,93.632,266.48,0.0015342,0.00024222,0.0,0 STARLINK-5448,1 54770U 22175N   24087.91822726  .00024222  00000-0  15342-2 0  9997,2 54770  53.2176 344.5696 0001116  93.6320 266.4800 15.08853601 72673,6917.839,95.437,540.476,538.932,0.0
54770.0,STARLINK-5448,PAYLOAD,2024-03-28 02:48:24,15.08863012,0.0001086,53.2174,343.6788,86.1982,273.9135,0.0026337,0.00041903,0.0,0 STARLINK-5448,1 54770U 22175N   24088.11694644  .00041903  00000-0  26337-2 0  9997,2 54770  53.2174 343.6788 0001086  86.1982 273.9135 15.08863012 70545,6917.81,95.436,540.426,538.924,0.0
54770.0,STARLINK-5448,PAYLOAD,2024-03-28 17:06:52,15.08857782,0.0001371,53.216,341.0024,71.4069,288.7072,0.0010774,0.00016909,0.0,0 STARLINK-5448,1 54770U 22175N   24088.71310627  .00016909  00000-0  10774-2 0  9995,2 54770  53.2160 341.0024 0001371  71.4069 288.7072 15.08857782 70636,6917.826,95.436,540.639,538.743,0.0
54770.0,STARLINK-5448,PAYLOAD,2024-03-28 23:28:24,15.08848836,0.0001144,53.2179,339.8105,74.074,286.0378,0.0012346,0.0001942,0.0,0 STARLINK-5448,1 54770U 22175N   24088.97806617  .00019420  00000-0  12346-2 0  9990,2 54770  53.2179 339.8105 0001144  74.0740 286.0378 15.08848836 72838,6917.853,95.437,540.51,538.927,0.0
54770.0,STARLINK-5448,PAYLOAD,2024-03-29 02:39:11,15.08844417,0.0001093,53.2169,339.2164,69.2463,290.8646,0.00084136,0.00013129,0.0,0 STARLINK-5448,1 54770U 22175N   24089.11054602  .00013129  00000-0  84136-3 0  9993,2 54770  53.2169 339.2164 0001093  69.2463 290.8646 15.08844417 70691,6917.867,95.437,540.488,538.976,0.0
54770.0,STARLINK-5448,PAYLOAD,2024-03-29 23:19:12,15.08841409,0.0001104,53.2182,335.3479,70.8636,289.2476,0.00023156,3.4e-05,0.0,0 STARLINK-5448,1 54770U 22175N   24089.97166733  .00003400  00000-0  23156-3 0  9992,2 54770  53.2182 335.3479 0001104  70.8636 289.2476 15.08841409 72980,6917.876,95.437,540.505,538.977,0.0
54770.0,STARLINK-5448,PAYLOAD,2024-03-30 02:29:58,15.08838659,0.0001027,53.2177,334.7534,67.0911,293.019,7.6694e-05,9.33e-06,0.0,0 STARLINK-5448,1 54770U 22175N   24090.10414797  .00000933  00000-0  76694-4 0  9999,2 54770  53.2177 334.7534 0001027  67.0911 293.0190 15.08838659 70849,6917.884,95.438,540.46,539.039,0.0
54770.0,STARLINK-5448,PAYLOAD,2024-03-30 08:51:30,15.08850734,0.0001072,53.2182,333.5672,95.9076,264.2039,0.00026865,3.992e-05,0.0,0 STARLINK-5448,1 54770U 22175N   24090.36910340  .00003992  00000-0  26865-3 0  9994,2 54770  53.2182 333.5672 0001072  95.9076 264.2039 15.08850734 70881,6917.848,95.437,540.454,538.971,0.0
54770.0,STARLINK-5448,PAYLOAD,2024-03-30 21:34:36,15.08833862,0.0001366,53.2183,331.1862,81.2537,278.861,1.3128e-05,-7.9e-07,0.0,0 STARLINK-5448,1 54770U 22175N   24090.89903312 -.00000079  00000-0  13128-4 0  9996,2 54770  53.2183 331.1862 0001366  81.2537 278.8610 15.08833862 70961,6917.899,95.438,540.709,538.819,0.0
54770.0,STARLINK-5448,PAYLOAD,2024-03-30 23:09:59,15.0883862,0.0001343,53.2191,330.8921,91.9105,268.2041,0.00011092,1.478e-05,0.0,0 STARLINK-5448,1 54770U 22175N   24090.96527087  .00001478  00000-0  11092-3 0  9995,2 54770  53.2191 330.8921 0001343  91.9105 268.2041 15.08838620 73136,6917.885,95.438,540.679,538.821,0.0
54770.0,STARLINK-5448,PAYLOAD,2024-03-31 08:42:17,15.08851935,0.0001306,53.2191,329.1075,89.3021,270.8121,0.00037067,5.618e-05,0.0,0 STARLINK-5448,1 54770U 22175N   24091.36270666  .00005618  00000-0  37067-3 0  9998,2 54770  53.2191 329.1075 0001306  89.3021 270.8121 15.08851935 71033,6917.844,95.437,540.612,538.805,0.0
